NUSHSAT1                
1 63211U 25052B   26068.64700493  .00023034  00000+0  74857-3 0  9997
2 63211  97.4095 325.7239 0005501  84.7512 275.4357 15.31903202 54882
STARLINK-35320          
1 65834U 25221M   26068.78401082  .00022266  00000+0  76148-3 0  9996
2 65834  53.1599  88.2034 0001375  82.3549 277.7608 15.30207074 24745
